OBJECT_NAME,OBJECT_ID,EPOCH,MEAN_MOTION,ECCENTRICITY,INCLINATION,RA_OF_ASC_NODE,ARG_OF_PERICENTER,MEAN_ANOMALY,EPHEMERIS_TYPE,CLASSIFICATION_TYPE,NORAD_CAT_ID,ELEMENT_SET_NO,REV_AT_EPOCH,BSTAR,MEAN_MOTION_DOT,MEAN_MOTION_DDOT
CONNECTA IOT-2,2024-149BG,2026-07-16T17:23:37.707072,15.24202017,.0005706,97.3834,275.4257,206.6598,153.4347,0,U,60522,999,10639,.10038E-3,.2375E-4,0
CONNECTA IOT-4,2024-149BJ,2026-07-16T18:50:42.079200,15.43209040,.0006157,97.3795,282.5273,169.8493,190.2881,0,U,60524,999,10689,.28119E-3,.12403E-3,0
ORESAT0.5,2024-149BK,2026-07-17T00:40:46.003008,15.46153168,.0006338,97.3723,284.5078,158.6450,201.5065,0,U,60525,999,10708,.25648E-3,.12499E-3,0
DEIMOS,2024-149BL,2026-07-16T21:12:03.761568,15.45232619,.0006078,97.3781,284.4849,164.7099,195.4335,0,U,60526,999,10703,.24801E-3,.11706E-3,0
CUAVA-2,2024-149BM,2026-07-16T18:44:56.143104,15.36757327,.0007029,97.3721,279.3629,173.9228,186.2103,0,U,60527,999,10671,.2091E-3,.7432E-4,0
ERNST,2024-149BN,2026-07-17T04:44:08.363328,15.39926230,.0006384,97.3803,282.1571,172.3354,187.7990,0,U,60528,999,10689,.19272E-3,.759E-4,0
TORO,2024-149BQ,2026-07-16T17:27:21.530592,14.96518532,.0001152,97.6774,271.8438,102.9796,257.1554,0,U,60530,999,10437,.55596E-4,.575E-5,0
HYPSO-2,2024-149BR,2026-07-16T16:59:37.896000,14.98938445,.0001719,97.6840,273.5404,97.4356,262.7063,0,U,60531,999,10447,.10597E-3,.1223E-4,0
LEMU NGE,2024-149BS,2026-07-16T18:26:38.385312,14.95064503,.0000574,97.6836,272.1305,91.0536,269.0750,0,U,60532,999,10437,.10671E-3,.1112E-4,0
LEMUR-2-STELLA,2024-149BT,2026-07-17T04:34:57.476928,15.12393884,.0001225,97.6732,280.7889,121.9085,238.2264,0,U,60533,999,10503,.34171E-3,.5866E-4,0
SATELIOT_2,2024-149BU,2026-07-17T04:24:35.695872,14.96461570,.0001427,97.6821,272.5930,74.8742,285.2637,0,U,60534,999,10445,.35924E-4,.351E-5,0
NIGHTJAR,2024-149BV,2026-07-17T03:53:34.499904,14.99178411,.000273,97.6843,274.4489,92.3510,267.8026,0,U,60535,999,14736,.18838E-3,.2234E-4,0
LEMUR-2-MARHISYAM,2024-149BW,2026-07-17T04:22:59.881728,15.11799755,.0002291,97.6875,281.2593,66.0951,294.0519,0,U,60536,999,10501,.34433E-3,.5814E-4,0
SATELIOT_4,2024-149BX,2026-07-16T18:53:50.339616,14.96760462,.0000893,97.6728,271.7109,332.2460,27.8714,0,U,60537,999,10440,.36348E-4,.359E-5,0
PICO-02A021,2024-149BY,2026-07-16T04:27:28.626336,15.03492308,.0003713,97.6737,275.7720,277.2422,82.8381,0,U,60538,999,10409,.1474E-3,.1948E-4,0
ICEYE-X43,2024-149BZ,2026-07-17T04:28:26.975712,14.99789309,.0006429,97.6794,274.7489,338.9157,21.1800,0,U,60539,999,10461,.54806E-4,.619E-5,0
HAWK-10A,2024-149CA,2026-07-17T04:34:13.622880,14.96593681,.0002923,97.6886,273.5864,355.0180,5.1012,0,U,60540,999,10447,.20044E-4,.171E-5,0
UMBRA-09,2024-149CB,2026-07-16T18:53:15.277632,15.18878818,.0002015,97.6973,285.5169,198.9521,161.1638,0,U,60541,999,10521,.42989E-3,.8897E-4,0
QPS-SAR-8 (AMATERU-IV),2024-149CC,2026-07-17T04:38:43.295424,15.04403187,.0003463,97.6652,277.0960,37.7473,322.3995,0,U,60542,999,10478,.13094E-3,.1767E-4,0
ARCTIC WEATHER SATELLITE,2024-149CD,2026-07-16T18:33:26.156160,14.89805032,.0002775,97.6790,267.3911,47.4964,312.6488,0,U,60543,999,10370,.38035E-4,.311E-5,0
CAPELLA-15 (ACADIA-5),2024-149CE,2026-07-16T18:09:18.721152,14.92399963,.0002981,97.6760,269.9186,339.4741,20.6358,0,U,60544,999,10426,.21575E-3,.2154E-4,0
HAWK-10B,2024-149CF,2026-07-16T18:56:21.702048,14.96592404,.0005276,97.6806,272.5171,8.7714,351.3599,0,U,60545,999,10441,.22717E-4,.202E-5,0
ICEYE-X39,2024-149CG,2026-07-16T18:17:48.321312,15.00080353,.0006909,97.6792,274.3880,42.3931,317.7826,0,U,60546,999,10455,.18654E-3,.2266E-4,0
UMBRA-10,2024-149CH,2026-07-16T18:52:35.939712,15.18879001,.0001727,97.6978,285.5465,163.5351,196.5939,0,U,60547,999,10522,.44267E-3,.9164E-4,0
ICEYE-X33,2024-149CJ,2026-07-17T04:04:39.089568,15.00895206,.0001911,97.7369,277.1615,73.0376,287.1057,0,U,60548,999,10470,.20546E-3,.2555E-4,0
ICEYE-X40,2024-149CK,2026-07-16T18:14:32.773056,14.98078302,.0003829,97.6805,273.7800,2.4627,357.6613,0,U,60549,999,10450,.13287E-3,.1514E-4,0
SATELIOT_1,2024-149CL,2026-07-17T00:23:06.308736,14.98167193,.0005444,97.6734,273.4174,347.4490,12.6596,0,U,60550,999,10453,.10558E-3,.1194E-4,0
BRO-14,2024-149CM,2026-07-16T16:30:52.191648,14.96238845,.0006606,97.6864,272.9353,13.7779,346.3621,0,U,60551,999,10440,.93958E-4,.1003E-4,0
SATELIOT_3,2024-149CN,2026-07-16T18:59:53.371680,14.98165300,.0004904,97.6816,274.0171,358.0957,2.0246,0,U,60552,999,10451,.37013E-4,.381E-5,0
BRO-15,2024-149CP,2026-07-16T17:42:15.617664,14.96222563,.0007622,97.6790,272.5582,359.5320,0.5893,0,U,60553,999,10442,.36211E-4,.351E-5,0
