CONNECTA IOT-2          
1 60522U 24149BG  26197.72474198  .00002375  00000+0  10038-3 0  9993
2 60522  97.3834 275.4257 0005706 206.6598 153.4347 15.24202017106397
CONNECTA IOT-4          
1 60524U 24149BJ  26197.78520925  .00012403  00000+0  28119-3 0  9993
2 60524  97.3795 282.5273 0006157 169.8493 190.2881 15.43209040106898
ORESAT0.5               
1 60525U 24149BK  26198.02831022  .00012499  00000+0  25648-3 0  9994
2 60525  97.3723 284.5078 0006338 158.6450 201.5065 15.46153168107089
DEIMOS                  
1 60526U 24149BL  26197.88337687  .00011706  00000+0  24801-3 0  9996
2 60526  97.3781 284.4849 0006078 164.7099 195.4335 15.45232619107031
CUAVA-2                 
1 60527U 24149BM  26197.78120536  .00007432  00000+0  20910-3 0  9997
2 60527  97.3721 279.3629 0007029 173.9228 186.2103 15.36757327106711
ERNST                   
1 60528U 24149BN  26198.19731902  .00007590  00000+0  19272-3 0  9993
2 60528  97.3803 282.1571 0006384 172.3354 187.7990 15.39926230106890
TORO                    
1 60530U 24149BQ  26197.72733253  .00000575  00000+0  55596-4 0  9991
2 60530  97.6774 271.8438 0001152 102.9796 257.1554 14.96518532104370
HYPSO-2                 
1 60531U 24149BR  26197.70807750  .00001223  00000+0  10597-3 0  9996
2 60531  97.6840 273.5404 0001719  97.4356 262.7063 14.98938445104475
LEMU NGE                
1 60532U 24149BS  26197.76849983  .00001112  00000+0  10671-3 0  9997
2 60532  97.6836 272.1305 0000574  91.0536 269.0750 14.95064503104378
LEMUR-2-STELLA          
1 60533U 24149BT  26198.19094302  .00005866  00000+0  34171-3 0  9994
2 60533  97.6732 280.7889 0001225 121.9085 238.2264 15.12393884105031
SATELIOT_2              
1 60534U 24149BU  26198.18374648  .00000351  00000+0  35924-4 0  9990
2 60534  97.6821 272.5930 0001427  74.8742 285.2637 14.96461570104457
NIGHTJAR                
1 60535U 24149BV  26198.16220486  .00002234  00000+0  18838-3 0  9995
2 60535  97.6843 274.4489 0002730  92.3510 267.8026 14.99178411147365
LEMUR-2-MARHISYAM       
1 60536U 24149BW  26198.18263752  .00005814  00000+0  34433-3 0  9997
2 60536  97.6875 281.2593 0002291  66.0951 294.0519 15.11799755105012
SATELIOT_4              
1 60537U 24149BX  26197.78738819  .00000359  00000+0  36348-4 0  9991
2 60537  97.6728 271.7109 0000893 332.2460  27.8714 14.96760462104402
PICO-02A021             
1 60538U 24149BY  26197.18574799  .00001948  00000+0  14740-3 0  9997
2 60538  97.6737 275.7720 0003713 277.2422  82.8381 15.03492308104092
ICEYE-X43               
1 60539U 24149BZ  26198.18642333  .00000619  00000+0  54806-4 0  9991
2 60539  97.6794 274.7489 0006429 338.9157  21.1800 14.99789309104618
HAWK-10A                
1 60540U 24149CA  26198.19043545  .00000171  00000+0  20044-4 0  9994
2 60540  97.6886 273.5864 0002923 355.0180   5.1012 14.96593681104471
UMBRA-09                
1 60541U 24149CB  26197.78698238  .00008897  00000+0  42989-3 0  9998
2 60541  97.6973 285.5169 0002015 198.9521 161.1638 15.18878818105218
QPS-SAR-8 (AMATERU-IV)  
1 60542U 24149CC  26198.19355666  .00001767  00000+0  13094-3 0  9994
2 60542  97.6652 277.0960 0003463  37.7473 322.3995 15.04403187104788
ARCTIC WEATHER SATELLITE
1 60543U 24149CD  26197.77321940  .00000311  00000+0  38035-4 0  9993
2 60543  97.6790 267.3911 0002775  47.4964 312.6488 14.89805032103705
CAPELLA-15 (ACADIA-5)   
1 60544U 24149CE  26197.75646668  .00002154  00000+0  21575-3 0  9996
2 60544  97.6760 269.9186 0002981 339.4741  20.6358 14.92399963104260
HAWK-10B                
1 60545U 24149CF  26197.78914007  .00000202  00000+0  22717-4 0  9997
2 60545  97.6806 272.5171 0005276   8.7714 351.3599 14.96592404104419
ICEYE-X39               
1 60546U 24149CG  26197.76236483  .00002266  00000+0  18654-3 0  9997
2 60546  97.6792 274.3880 0006909  42.3931 317.7826 15.00080353104555
UMBRA-10                
1 60547U 24149CH  26197.78652708  .00009164  00000+0  44267-3 0  9995
2 60547  97.6978 285.5465 0001727 163.5351 196.5939 15.18879001105228
ICEYE-X33               
1 60548U 24149CJ  26198.16989687  .00002555  00000+0  20546-3 0  9999
2 60548  97.7369 277.1615 0001911  73.0376 287.1057 15.00895206104701
ICEYE-X40               
1 60549U 24149CK  26197.76010154  .00001514  00000+0  13287-3 0  9997
2 60549  97.6805 273.7800 0003829   2.4627 357.6613 14.98078302104504
SATELIOT_1              
1 60550U 24149CL  26198.01604524  .00001194  00000+0  10558-3 0  9990
2 60550  97.6734 273.4174 0005444 347.4490  12.6596 14.98167193104531
BRO-14                  
1 60551U 24149CM  26197.68810407  .00001003  00000+0  93958-4 0  9997
2 60551  97.6864 272.9353 0006606  13.7779 346.3621 14.96238845104406
SATELIOT_3              
1 60552U 24149CN  26197.79158995  .00000381  00000+0  37013-4 0  9995
2 60552  97.6816 274.0171 0004904 358.0957   2.0246 14.98165300104515
BRO-15                  
1 60553U 24149CP  26197.73768076  .00000351  00000+0  36211-4 0  9993
2 60553  97.6790 272.5582 0007622 359.5320   0.5893 14.96222563104420
